[{"OBJECT_NAME":"SOYUZ-MS 28","OBJECT_ID":"2025-275A","EPOCH":"2026-03-15T06:10:05.524032","MEAN_MOTION":15.48289699,"ECCENTRICITY":0.00063497,"INCLINATION":51.633,"RA_OF_ASC_NODE":44.8327,"ARG_OF_PERICENTER":192.8038,"MEAN_ANOMALY":167.279,"EPHEMERIS_TYPE":0,"CLASSIFICATION_TYPE":"U","NORAD_CAT_ID":66664,"ELEMENT_SET_NO":999,"REV_AT_EPOCH":55452,"BSTAR":0.00018620385,"MEAN_MOTION_DOT":9.576e-5,"MEAN_MOTION_DDOT":0},{"OBJECT_NAME":"DUPLEX","OBJECT_ID":"1998-067XS","EPOCH":"2026-03-15T14:55:06.458592","MEAN_MOTION":15.56634012,"ECCENTRICITY":0.00027941,"INCLINATION":51.6294,"RA_OF_ASC_NODE":39.77,"ARG_OF_PERICENTER":138.5108,"MEAN_ANOMALY":221.6097,"EPHEMERIS_TYPE":0,"CLASSIFICATION_TYPE":"U","NORAD_CAT_ID":66906,"ELEMENT_SET_NO":999,"REV_AT_EPOCH":1605,"BSTAR":0.00039788089,"MEAN_MOTION_DOT":0.00028497,"MEAN_MOTION_DDOT":0},{"OBJECT_NAME":"ISS OBJECT XT","OBJECT_ID":"1998-067XT","EPOCH":"2026-03-15T01:21:01.873152","MEAN_MOTION":15.71174897,"ECCENTRICITY":0.00046884,"INCLINATION":51.6247,"RA_OF_ASC_NODE":38.2251,"ARG_OF_PERICENTER":115.4311,"MEAN_ANOMALY":244.7173,"EPHEMERIS_TYPE":0,"CLASSIFICATION_TYPE":"U","NORAD_CAT_ID":66907,"ELEMENT_SET_NO":999,"REV_AT_EPOCH":1602,"BSTAR":0.0015332922,"MEAN_MOTION_DOT":0.00202137,"MEAN_MOTION_DDOT":0},{"OBJECT_NAME":"ISS OBJECT XU","OBJECT_ID":"1998-067XU","EPOCH":"2026-03-15T01:17:47.256288","MEAN_MOTION":15.71313389,"ECCENTRICITY":0.00049873,"INCLINATION":51.6248,"RA_OF_ASC_NODE":38.2054,"ARG_OF_PERICENTER":118.2627,"MEAN_ANOMALY":241.8875,"EPHEMERIS_TYPE":0,"CLASSIFICATION_TYPE":"U","NORAD_CAT_ID":66908,"ELEMENT_SET_NO":999,"REV_AT_EPOCH":1602,"BSTAR":0.0015284504,"MEAN_MOTION_DOT":0.00202702,"MEAN_MOTION_DDOT":0},{"OBJECT_NAME":"SILVERSAT","OBJECT_ID":"1998-067XV","EPOCH":"2026-03-15T04:06:59.070528","MEAN_MOTION":15.74772085,"ECCENTRICITY":0.00054443,"INCLINATION":51.6239,"RA_OF_ASC_NODE":36.7379,"ARG_OF_PERICENTER":117.7755,"MEAN_ANOMALY":242.3797,"EPHEMERIS_TYPE":0,"CLASSIFICATION_TYPE":"U","NORAD_CAT_ID":66909,"ELEMENT_SET_NO":999,"REV_AT_EPOCH":1605,"BSTAR":0.00171494,"MEAN_MOTION_DOT":0.0026581,"MEAN_MOTION_DDOT":0},{"OBJECT_NAME":"ISS OBJECT XW","OBJECT_ID":"1998-067XW","EPOCH":"2026-03-15T04:20:34.782432","MEAN_MOTION":15.70370803,"ECCENTRICITY":0.00053536,"INCLINATION":51.6239,"RA_OF_ASC_NODE":37.5499,"ARG_OF_PERICENTER":120.8061,"MEAN_ANOMALY":239.3464,"EPHEMERIS_TYPE":0,"CLASSIFICATION_TYPE":"U","NORAD_CAT_ID":66910,"ELEMENT_SET_NO":999,"REV_AT_EPOCH":1604,"BSTAR":0.0013629257,"MEAN_MOTION_DOT":0.00173075,"MEAN_MOTION_DDOT":0},{"OBJECT_NAME":"ISS OBJECT XX","OBJECT_ID":"1998-067XX","EPOCH":"2026-03-15T14:23:15.742464","MEAN_MOTION":15.78906967,"ECCENTRICITY":0.00070094,"INCLINATION":51.6208,"RA_OF_ASC_NODE":33.5717,"ARG_OF_PERICENTER":124.4751,"MEAN_ANOMALY":235.6913,"EPHEMERIS_TYPE":0,"CLASSIFICATION_TYPE":"U","NORAD_CAT_ID":66911,"ELEMENT_SET_NO":999,"REV_AT_EPOCH":1612,"BSTAR":0.0015333743,"MEAN_MOTION_DOT":0.00286223,"MEAN_MOTION_DDOT":0},{"OBJECT_NAME":"ISS OBJECT XY","OBJECT_ID":"1998-067XY","EPOCH":"2026-03-14T22:45:17.273376","MEAN_MOTION":15.6480189,"ECCENTRICITY":0.00034365,"INCLINATION":51.6268,"RA_OF_ASC_NODE":40.5165,"ARG_OF_PERICENTER":120.1038,"MEAN_ANOMALY":240.0298,"EPHEMERIS_TYPE":0,"CLASSIFICATION_TYPE":"U","NORAD_CAT_ID":66912,"ELEMENT_SET_NO":999,"REV_AT_EPOCH":1597,"BSTAR":0.0011443978,"MEAN_MOTION_DOT":0.00114837,"MEAN_MOTION_DDOT":0},{"OBJECT_NAME":"KNACKSAT-2","OBJECT_ID":"1998-067XZ","EPOCH":"2026-03-15T07:54:11.011968","MEAN_MOTION":15.5233537,"ECCENTRICITY":0.00095951,"INCLINATION":51.6309,"RA_OF_ASC_NODE":43.817,"ARG_OF_PERICENTER":205.6591,"MEAN_ANOMALY":154.3924,"EPHEMERIS_TYPE":0,"CLASSIFICATION_TYPE":"U","NORAD_CAT_ID":67683,"ELEMENT_SET_NO":999,"REV_AT_EPOCH":566,"BSTAR":0.0007594554,"MEAN_MOTION_DOT":0.00046999,"MEAN_MOTION_DDOT":0},{"OBJECT_NAME":"GXIBA-1","OBJECT_ID":"1998-067YA","EPOCH":"2026-03-15T03:55:34.712544","MEAN_MOTION":15.5530396,"ECCENTRICITY":0.00116134,"INCLINATION":51.6308,"RA_OF_ASC_NODE":44.2101,"ARG_OF_PERICENTER":194.5368,"MEAN_ANOMALY":165.5291,"EPHEMERIS_TYPE":0,"CLASSIFICATION_TYPE":"U","NORAD_CAT_ID":67684,"ELEMENT_SET_NO":999,"REV_AT_EPOCH":564,"BSTAR":0.001289316,"MEAN_MOTION_DOT":0.0008987,"MEAN_MOTION_DDOT":0},{"OBJECT_NAME":"CORAL","OBJECT_ID":"1998-067YB","EPOCH":"2026-03-15T04:40:23.786400","MEAN_MOTION":15.5273969,"ECCENTRICITY":0.00115347,"INCLINATION":51.6319,"RA_OF_ASC_NODE":44.4177,"ARG_OF_PERICENTER":201.7026,"MEAN_ANOMALY":158.3476,"EPHEMERIS_TYPE":0,"CLASSIFICATION_TYPE":"U","NORAD_CAT_ID":67685,"ELEMENT_SET_NO":999,"REV_AT_EPOCH":564,"BSTAR":0.00082450602,"MEAN_MOTION_DOT":0.00051896,"MEAN_MOTION_DDOT":0},{"OBJECT_NAME":"ISS OBJECT YC","OBJECT_ID":"1998-067YC","EPOCH":"2026-03-15T15:17:51.823104","MEAN_MOTION":15.5344535,"ECCENTRICITY":0.00083545,"INCLINATION":51.6318,"RA_OF_ASC_NODE":42.1267,"ARG_OF_PERICENTER":172.2872,"MEAN_ANOMALY":187.8249,"EPHEMERIS_TYPE":0,"CLASSIFICATION_TYPE":"U","NORAD_CAT_ID":67686,"ELEMENT_SET_NO":999,"REV_AT_EPOCH":571,"BSTAR":0.00080897971,"MEAN_MOTION_DOT":0.00052171,"MEAN_MOTION_DDOT":0},{"OBJECT_NAME":"LEOPARD","OBJECT_ID":"1998-067YD","EPOCH":"2026-03-15T10:55:12.335232","MEAN_MOTION":15.52542575,"ECCENTRICITY":0.00081398,"INCLINATION":51.6313,"RA_OF_ASC_NODE":43.1584,"ARG_OF_PERICENTER":175.2316,"MEAN_ANOMALY":184.8753,"EPHEMERIS_TYPE":0,"CLASSIFICATION_TYPE":"U","NORAD_CAT_ID":67687,"ELEMENT_SET_NO":999,"REV_AT_EPOCH":560,"BSTAR":0.00070811065,"MEAN_MOTION_DOT":0.00044081,"MEAN_MOTION_DDOT":0},{"OBJECT_NAME":"ISS OBJECT YE","OBJECT_ID":"1998-067YE","EPOCH":"2026-03-15T04:34:24.545568","MEAN_MOTION":15.53094941,"ECCENTRICITY":0.00082552,"INCLINATION":51.6315,"RA_OF_ASC_NODE":44.3921,"ARG_OF_PERICENTER":171.8524,"MEAN_ANOMALY":188.2602,"EPHEMERIS_TYPE":0,"CLASSIFICATION_TYPE":"U","NORAD_CAT_ID":67688,"ELEMENT_SET_NO":999,"REV_AT_EPOCH":556,"BSTAR":0.00089872899,"MEAN_MOTION_DOT":0.00057311,"MEAN_MOTION_DDOT":0},{"OBJECT_NAME":"CREW DRAGON 12","OBJECT_ID":"2026-031A","EPOCH":"2026-03-15T06:10:05.524032","MEAN_MOTION":15.48289699,"ECCENTRICITY":0.00063497,"INCLINATION":51.633,"RA_OF_ASC_NODE":44.8327,"ARG_OF_PERICENTER":192.8038,"MEAN_ANOMALY":167.279,"EPHEMERIS_TYPE":0,"CLASSIFICATION_TYPE":"U","NORAD_CAT_ID":67796,"ELEMENT_SET_NO":999,"REV_AT_EPOCH":55709,"BSTAR":0.00018620385,"MEAN_MOTION_DOT":9.576e-5,"MEAN_MOTION_DDOT":0}]
